CCSDS_OMM_VERS,COMMENT,CREATION_DATE,ORIGINATOR,OBJECT_NAME,OBJECT_ID,CENTER_NAME,REF_FRAME,TIME_SYSTEM,MEAN_ELEMENT_THEORY,EPOCH,MEAN_MOTION,ECCENTRICITY,INCLINATION,RA_OF_ASC_NODE,ARG_OF_PERICENTER,MEAN_ANOMALY,EPHEMERIS_TYPE,CLASSIFICATION_TYPE,NORAD_CAT_ID,ELEMENT_SET_NO,REV_AT_EPOCH,BSTAR,MEAN_MOTION_DOT,MEAN_MOTION_DDOT,SEMIMAJOR_AXIS,PERIOD,APOAPSIS,PERIAPSIS,OBJECT_TYPE,RCS_SIZE,COUNTRY_CODE,LAUNCH_DATE,SITE,DECAY_DATE,FILE,GP_ID,TLE_LINE0,TLE_LINE1,TLE_LINE2
"2.0","GENERATED VIA SPACE-TRACK.ORG API","2020-04-27T02:15:36","18 SPCS","COSMOS 1732","1986-015A","EARTH","TEME","UTC","SGP4","2020-04-26T18:11:02.821920","12.40984277","0.00259520","73.6112","70.4112","34.8617","325.4120","0","U","16593","999","54987","-0.00001606200000","-0.00000019","0.0000000000000","7880.570","116.036","1522.887","1481.983","PAYLOAD","LARGE","CIS","1986-02-11","PKMTR","","2739968","152938175","0 COSMOS 1732","1 16593U 86015A   20117.75767155 -.00000019 +00000-0 -16062-4 0  9999","2 16593 073.6112 070.4112 0025952 034.8617 325.4120 12.40984277549877"
"2.0","GENERATED VIA SPACE-TRACK.ORG API","2020-04-26T16:55:34","18 SPCS","COSMOS 2498","2014-028C","EARTH","TEME","UTC","SGP4","2020-04-26T13:24:49.492224","12.42885655","0.00194490","82.4465","73.5754","280.5926","79.2953","0","U","39763","999","26899","-0.00001423300000","0.00000008","0.0000000000000","7872.531","115.859","1509.707","1479.084","PAYLOAD","LARGE","CIS","2014-05-23","PKMTR","","2739807","152906209","0 COSMOS 2498","1 39763U 14028C   20117.55890616 +.00000008 +00000-0 -14233-4 0  9990","2 39763 082.4465 073.5754 0019449 280.5926 079.2953 12.42885655268994"
"2.0","GENERATED VIA SPACE-TRACK.ORG API","2020-04-26T16:55:34","18 SPCS","COSMOS 1732","1986-015A","EARTH","TEME","UTC","SGP4","2020-04-26T06:34:36.192864","12.40984281","0.00259440","73.6111","71.0593","35.5541","324.7225","0","U","16593","999","54956","-0.00002479500000","-0.00000021","0.0000000000000","7880.570","116.036","1522.880","1481.990","PAYLOAD","LARGE","CIS","1986-02-11","PKMTR","","2739807","152895125","0 COSMOS 1732","1 16593U 86015A   20117.27403001 -.00000021 +00000-0 -24795-4 0  9998","2 16593 073.6111 071.0593 0025944 035.5541 324.7225 12.40984281549560"
"2.0","GENERATED VIA SPACE-TRACK.ORG API","2020-04-26T02:32:17","18 SPCS","COSMOS 1732","1986-015A","EARTH","TEME","UTC","SGP4","2020-04-25T20:54:14.009472","12.40984305","0.00259370","73.6101","71.5996","36.1707","324.1084","0","U","16593","999","54951","-0.00003586100000","-0.00000022","0.0000000000000","7880.570","116.036","1522.875","1481.995","PAYLOAD","LARGE","CIS","1986-02-11","PKMTR","","2739478","152867125","0 COSMOS 1732","1 16593U 86015A   20116.87099548 -.00000022 +00000-0 -35861-4 0  9997","2 16593 073.6101 071.5996 0025937 036.1707 324.1084 12.40984305549513"
"2.0","GENERATED VIA SPACE-TRACK.ORG API","2020-04-26T02:32:17","18 SPCS","COSMOS 2498","2014-028C","EARTH","TEME","UTC","SGP4","2020-04-25T20:01:34.954176","12.42885869","0.00194460","82.4458","74.0296","282.3321","77.5582","0","U","39763","999","26890","0.00010947000000","0.00000025","0.0000000000000","7872.530","115.859","1509.704","1479.086","PAYLOAD","LARGE","CIS","2014-05-23","PKMTR","","2739478","152878209","0 COSMOS 2498","1 39763U 14028C   20116.83443234 +.00000025 +00000-0 +10947-3 0  9995","2 39763 082.4458 074.0296 0019446 282.3321 077.5582 12.42885869268906"
"2.0","GENERATED VIA SPACE-TRACK.ORG API","2020-04-25T18:03:55","18 SPCS","COSMOS 1732","1986-015A","EARTH","TEME","UTC","SGP4","2020-04-25T13:09:56.252736","12.40984274","0.00259340","73.6110","72.0314","36.6121","323.6689","0","U","16593","999","54947","-0.00007143600000","-0.00000027","0.0000000000000","7880.570","116.036","1522.872","1481.997","PAYLOAD","LARGE","CIS","1986-02-11","PKMTR","","2739334","152843942","0 COSMOS 1732","1 16593U 86015A   20116.54856774 -.00000027 +00000-0 -71436-4 0  9996","2 16593 073.6110 072.0314 0025934 036.6121 323.6689 12.40984274549470"
"2.0","GENERATED VIA SPACE-TRACK.ORG API","2020-04-25T14:46:09","18 SPCS","COSMOS 2498","2014-028C","EARTH","TEME","UTC","SGP4","2020-04-25T12:17:55.168512","12.42885859","0.00194460","82.4458","74.2312","283.0330","76.8578","0","U","39763","999","26886","0.00010947000000","0.00000025","0.0000000000000","7872.530","115.859","1509.704","1479.086","PAYLOAD","LARGE","CIS","2014-05-23","PKMTR","","2739244","152837316","0 COSMOS 2498","1 39763U 14028C   20116.51244408  .00000025  00000-0  10947-3 0  9992","2 39763  82.4458  74.2312 0019446 283.0330  76.8578 12.42885859268866"
"2.0","GENERATED VIA SPACE-TRACK.ORG API","2020-04-25T01:26:08","18 SPCS","COSMOS 1732","1986-015A","EARTH","TEME","UTC","SGP4","2020-04-24T19:45:16.303968","12.40984347","0.00259220","73.6108","73.0036","37.6649","322.6204","0","U","16593","999","54938","-0.00005185700000","-0.00000024","0.0000000000000","7880.570","116.036","1522.863","1482.007","PAYLOAD","LARGE","CIS","1986-02-11","PKMTR","","2738985","152776102","0 COSMOS 1732","1 16593U 86015A   20115.82310537 -.00000024 +00000-0 -51857-4 0  9990","2 16593 073.6108 073.0036 0025922 037.6649 322.6204 12.40984347549385"
"2.0","GENERATED VIA SPACE-TRACK.ORG API","2020-04-25T01:26:08","18 SPCS","COSMOS 2498","2014-028C","EARTH","TEME","UTC","SGP4","2020-04-24T18:54:40.659840","12.42885837","0.00194460","82.4458","74.6849","284.6103","75.2823","0","U","39763","999","26877","0.00010947000000","0.00000025","0.0000000000000","7872.530","115.859","1509.704","1479.086","PAYLOAD","LARGE","CIS","2014-05-23","PKMTR","","2738985","152787187","0 COSMOS 2498","1 39763U 14028C   20115.78797060 +.00000025 +00000-0 +10947-3 0  9997","2 39763 082.4458 074.6849 0019446 284.6103 075.2823 12.42885837268772"
"2.0","GENERATED VIA SPACE-TRACK.ORG API","2020-04-24T14:26:10","18 SPCS","COSMOS 2498","2014-028C","EARTH","TEME","UTC","SGP4","2020-04-24T11:11:00.879360","12.42885803","0.00194610","82.4457","74.8865","285.3444","74.5486","0","U","39763","999","26873","0.00009702300000","0.00000023","0.0000000000000","7872.530","115.859","1509.716","1479.074","PAYLOAD","LARGE","CIS","2014-05-23","PKMTR","","2738644","152744029","0 COSMOS 2498","1 39763U 14028C   20115.46598240  .00000023  00000-0  97023-4 0  9990","2 39763  82.4457  74.8865 0019461 285.3444  74.5486 12.42885803268730"
"2.0","GENERATED VIA SPACE-TRACK.ORG API","2020-04-24T14:26:10","18 SPCS","COSMOS 1732","1986-015A","EARTH","TEME","UTC","SGP4","2020-04-24T08:08:49.676640","12.40984324","0.00259070","73.6107","73.6517","38.3663","321.9217","0","U","16593","999","54957","-0.00008389200000","-0.00000029","0.0000000000000","7880.570","116.036","1522.851","1482.019","PAYLOAD","LARGE","CIS","1986-02-11","PKMTR","","2738596","152742828","0 COSMOS 1732","1 16593U 86015A   20115.33946385 -.00000029  00000-0 -83892-4 0  9991","2 16593  73.6107  73.6517 0025907  38.3663 321.9217 12.40984324549573"
"2.0","GENERATED VIA SPACE-TRACK.ORG API","2020-04-24T03:33:48","18 SPCS","COSMOS 1732","1986-015A","EARTH","TEME","UTC","SGP4","2020-04-23T20:32:23.048448","12.40984331","0.00258990","73.6106","74.2998","39.0724","321.2184","0","U","16593","999","54926","-0.00010310000000","-0.00000031","0.0000000000000","7880.570","116.036","1522.845","1482.025","PAYLOAD","LARGE","CIS","1986-02-11","PKMTR","","2738422","152723154","0 COSMOS 1732","1 16593U 86015A   20114.85582232 -.00000031 +00000-0 -10310-3 0  9991","2 16593 073.6106 074.2998 0025899 039.0724 321.2184 12.40984331549268"
"2.0","GENERATED VIA SPACE-TRACK.ORG API","2020-04-24T03:33:48","18 SPCS","COSMOS 2498","2014-028C","EARTH","TEME","UTC","SGP4","2020-04-23T17:47:46.358592","12.42885866","0.00194770","82.4454","75.3402","286.9817","72.9131","0","U","39763","999","26864","0.00015229000000","0.00000031","0.0000000000000","7872.530","115.859","1509.728","1479.061","PAYLOAD","LARGE","CIS","2014-05-23","PKMTR","","2738422","152734238","0 COSMOS 2498","1 39763U 14028C   20114.74150878 +.00000031 +00000-0 +15229-3 0  9997","2 39763 082.4454 075.3402 0019477 286.9817 072.9131 12.42885866268646"
"2.0","GENERATED VIA SPACE-TRACK.ORG API","2020-04-23T14:46:10","18 SPCS","COSMOS 2498","2014-028C","EARTH","TEME","UTC","SGP4","2020-04-23T10:04:06.587616","12.42885844","0.00194720","82.4455","75.5418","287.7171","72.1788","0","U","39763","999","26860","0.00014906000000","0.00000030","0.0000000000000","7872.530","115.859","1509.724","1479.066","PAYLOAD","LARGE","CIS","2014-05-23","PKMTR","","2738186","152673549","0 COSMOS 2498","1 39763U 14028C   20114.41952069  .00000030  00000-0  14906-3 0  9993","2 39763  82.4455  75.5418 0019472 287.7171  72.1788 12.42885844268605"
"2.0","GENERATED VIA SPACE-TRACK.ORG API","2020-04-24T00:11:50","18 SPCS","COSMOS 1732","1986-015A","EARTH","TEME","UTC","SGP4","2020-04-23T06:59:51.984096","12.40984320","0.00258840","73.6105","75.0559","39.8847","320.4092","0","U","16593","999","54919","-0.00010477000000","-0.00000031","0.0000000000000","7880.570","116.036","1522.833","1482.037","PAYLOAD","LARGE","CIS","1986-02-11","PKMTR","","2738420","152703287","0 COSMOS 1732","1 16593U 86015A   20114.29157389 -.00000031 +00000-0 -10477-3 0  9994","2 16593 073.6105 075.0559 0025884 039.8847 320.4092 12.40984320549196"
"2.0","GENERATED VIA SPACE-TRACK.ORG API","2020-04-23T17:27:44","18 SPCS","COSMOS 1732","1986-015A","EARTH","TEME","UTC","SGP4","2020-04-23T05:03:47.546208","12.40984314","0.00258820","73.6105","75.1639","39.9979","320.2964","0","U","16593","999","54918","-0.00010796000000","-0.00000032","0.0000000000000","7880.570","116.036","1522.831","1482.038","PAYLOAD","LARGE","CIS","1986-02-11","PKMTR","","2738303","152680764","0 COSMOS 1732","1 16593U 86015A   20114.21096697 -.00000032 +00000-0 -10796-3 0  9995","2 16593 073.6105 075.1639 0025882 039.9979 320.2964 12.40984314549189"
